0 COSMOS 1275 DEB
1 12670U 81053AA  13281.76800376  .00000190  00000-0  17170-3 0  5181
2 12670 082.9440 061.4004 0058462 125.4326 353.4768 13.77814545615203
0 COSMOS 1275 DEB
1 12670U 81053AA  13284.16416907  .00000177  00000-0  15890-3 0  5194
2 12670 082.9444 059.6170 0058414 118.8914 358.6007 13.77816048615535
0 COSMOS 1275 DEB
1 12670U 81053AA  13286.48600094  .00000149  00000-0  13156-3 0  5207
2 12670 082.9449 057.8889 0058343 112.5533 355.0359 13.77816819615858
0 COSMOS 1275 DEB
1 12670U 81053AA  13288.81062910  .00000203  00000-0  18473-3 0  5214
2 12670 082.9454 056.1590 0058256 106.1837 005.3734 13.77817545616179
0 COSMOS 1275 DEB
1 12670U 81053AA  13291.13547752  .00000240  00000-0  22112-3 0  5222
2 12670 082.9456 054.4292 0058195 099.8020 016.8237 13.77818651616494
0 COSMOS 1275 DEB
1 12670U 81053AA  13293.15668311  .00000295  00000-0  27588-3 0  5234
2 12670 082.9455 052.9253 0058132 094.2560 322.1835 13.77819688616771
0 COSMOS 1275 DEB
1 12670U 81053AA  13295.19337059  .00000295  00000-0  27547-3 0  5248
2 12670 082.9456 051.4098 0058083 088.6665 344.3431 13.77820984617052
